[{"OBJECT_NAME":"YUNHAI-2 02E","OBJECT_ID":"2024-052E","EPOCH":"2026-03-09T23:04:08.218272","MEAN_MOTION":14.27923834,"ECCENTRICITY":0.00117453,"INCLINATION":50.0117,"RA_OF_ASC_NODE":23.2487,"ARG_OF_PERICENTER":69.3739,"MEAN_ANOMALY":290.8434,"EPHEMERIS_TYPE":0,"CLASSIFICATION_TYPE":"U","NORAD_CAT_ID":59284,"ELEMENT_SET_NO":999,"REV_AT_EPOCH":9275,"BSTAR":0.0001398659,"MEAN_MOTION_DOT":1.88e-6,"MEAN_MOTION_DDOT":0},{"OBJECT_NAME":"NOAA 17 DEB","OBJECT_ID":"2002-032AU","EPOCH":"2026-03-08T02:09:58.658400","MEAN_MOTION":14.33064046,"ECCENTRICITY":0.00591602,"INCLINATION":98.8036,"RA_OF_ASC_NODE":21.0401,"ARG_OF_PERICENTER":303.5152,"MEAN_ANOMALY":56.0388,"EPHEMERIS_TYPE":0,"CLASSIFICATION_TYPE":"U","NORAD_CAT_ID":48711,"ELEMENT_SET_NO":999,"REV_AT_EPOCH":25647,"BSTAR":0.0030687328,"MEAN_MOTION_DOT":8.538e-5,"MEAN_MOTION_DDOT":0}]
